NUSAT-48 (HENRIETTA LE*)
1 60498U 24149AG  26068.80506098  .00012988  00000+0  45212-3 0  9999
2 60498  97.3923 150.8264 0002754 263.3026  96.7901 15.29812597 86946
STARLINK-35753          
1 66232U 25244AC  26068.74811663  .00031434  00000+0  10676-2 0  9990
2 66232  53.1567 229.9765 0001088 145.1554 214.9518 15.30242286 21668
